[{"OBJECT_NAME":"STARLINK-6069","OBJECT_ID":"2023-078AP","EPOCH":"2026-03-09T22:42:04.054464","MEAN_MOTION":14.98327874,"ECCENTRICITY":0.00026032,"INCLINATION":70.0001,"RA_OF_ASC_NODE":323.7401,"ARG_OF_PERICENTER":261.2773,"MEAN_ANOMALY":98.8092,"EPHEMERIS_TYPE":0,"CLASSIFICATION_TYPE":"U","NORAD_CAT_ID":56804,"ELEMENT_SET_NO":999,"REV_AT_EPOCH":15388,"BSTAR":-0.00010825386,"MEAN_MOTION_DOT":-1.384e-5,"MEAN_MOTION_DDOT":0},{"OBJECT_NAME":"NOAA 16 DEB","OBJECT_ID":"2000-055HK","EPOCH":"2026-03-09T11:22:55.184448","MEAN_MOTION":14.96713123,"ECCENTRICITY":0.00044813,"INCLINATION":98.9091,"RA_OF_ASC_NODE":257.3123,"ARG_OF_PERICENTER":226.904,"MEAN_ANOMALY":133.1803,"EPHEMERIS_TYPE":0,"CLASSIFICATION_TYPE":"U","NORAD_CAT_ID":41307,"ELEMENT_SET_NO":999,"REV_AT_EPOCH":53055,"BSTAR":0.0073865996,"MEAN_MOTION_DOT":0.00085329,"MEAN_MOTION_DDOT":0}]
